O3B MPOWER F1           
1 54755U 22174A   26203.93368001 -.00000024  00000+0  00000+0 0  9990
2 54755   0.0485 338.8397 0006684 152.3437 246.5068  5.00114794 67145
O3B MPOWER F2           
1 54756U 22174B   26204.09048927 -.00000024  00000+0  00000+0 0  9991
2 54756   0.0444 339.7162 0005764 135.6973 244.6440  5.00114952 67248
O3B MPOWER F4           
1 56367U 23059A   26203.75492833 -.00000024  00000+0  00000+0 0  9995
2 56367   0.0628 348.7145 0007730 134.8562 236.5008  5.00115427 60389
O3B MPOWER F3           
1 56368U 23059B   26203.98793513 -.00000024  00000+0  00000+0 0  9990
2 56368   0.0635 347.8530 0006645 129.5852 242.6272  5.00116501 56529
O3B MPOWER F5           
1 58346U 23175A   26203.88905061 -.00000024  00000+0  00000+0 0  9999
2 58346   0.0533   8.3680 0005612 131.1897 220.4818  5.00115857 51225
O3B MPOWER F6           
1 58347U 23175B   26203.78963984 -.00000024  00000+0  00000+0 0  9997
2 58347   0.0546   0.0652 0004432 120.0521 239.9244  5.00115774 50133
O3B MPOWER F7           
1 62362U 24244A   26203.65615638 -.00000024  00000+0  00000+0 0  9993
2 62362   0.0655 341.3994 0005923 135.0371 243.6220  5.00115385 28309
O3B MPOWER F8           
1 62363U 24244B   26204.02289283 -.00000024  00000+0  00000+0 0  9999
2 62363   0.0155  12.8789 0005672  97.1487 250.0313  5.00115058 22669
O3B MPOWER F9           
1 64866U 25153A   26202.95681012 -.00000024  00000+0  00000+0 0  9995
2 64866   0.0620   4.4458 0006796 133.3971 222.2070  5.00115712 21303
O3B MPOWER F10          
1 64867U 25153B   26204.12221974 -.00000024  00000+0  00000+0 0  9994
2 64867   0.0591   1.0475 0002636 246.7051 112.2172  5.00114991 23839
