{"fetched_at":"2026-07-23T17:55:44.085Z","source":"https://celestrak.org/NORAD/elements/gp.php?NAME=O3B&FORMAT=JSON","constellation":"o3b-mpower","records":[{"OBJECT_NAME":"O3B MPOWER F1","OBJECT_ID":"2022-174A","EPOCH":"2026-07-22T22:24:29.952864","CLASSIFICATION_TYPE":"U","MEAN_MOTION":5.00114794,"ECCENTRICITY":0.00066843,"INCLINATION":0.0485,"RA_OF_ASC_NODE":338.8397,"ARG_OF_PERICENTER":152.3437,"MEAN_ANOMALY":246.5068,"EPHEMERIS_TYPE":0,"NORAD_CAT_ID":54755,"ELEMENT_SET_NO":999,"REV_AT_EPOCH":6714,"BSTAR":0,"MEAN_MOTION_DOT":-2.4e-7,"MEAN_MOTION_DDOT":0},{"OBJECT_NAME":"O3B MPOWER F2","OBJECT_ID":"2022-174B","EPOCH":"2026-07-23T02:10:18.272928","CLASSIFICATION_TYPE":"U","MEAN_MOTION":5.00114952,"ECCENTRICITY":0.00057646,"INCLINATION":0.0444,"RA_OF_ASC_NODE":339.7162,"ARG_OF_PERICENTER":135.6973,"MEAN_ANOMALY":244.644,"EPHEMERIS_TYPE":0,"NORAD_CAT_ID":54756,"ELEMENT_SET_NO":999,"REV_AT_EPOCH":6724,"BSTAR":0,"MEAN_MOTION_DOT":-2.4e-7,"MEAN_MOTION_DDOT":0},{"OBJECT_NAME":"O3B MPOWER F4","OBJECT_ID":"2023-059A","EPOCH":"2026-07-22T18:07:05.807712","CLASSIFICATION_TYPE":"U","MEAN_MOTION":5.00115427,"ECCENTRICITY":0.00077304,"INCLINATION":0.0628,"RA_OF_ASC_NODE":348.7145,"ARG_OF_PERICENTER":134.8562,"MEAN_ANOMALY":236.5008,"EPHEMERIS_TYPE":0,"NORAD_CAT_ID":56367,"ELEMENT_SET_NO":999,"REV_AT_EPOCH":6038,"BSTAR":0,"MEAN_MOTION_DOT":-2.4e-7,"MEAN_MOTION_DDOT":0},{"OBJECT_NAME":"O3B MPOWER F3","OBJECT_ID":"2023-059B","EPOCH":"2026-07-22T23:42:37.595232","CLASSIFICATION_TYPE":"U","MEAN_MOTION":5.00116501,"ECCENTRICITY":0.0006645,"INCLINATION":0.0635,"RA_OF_ASC_NODE":347.853,"ARG_OF_PERICENTER":129.5852,"MEAN_ANOMALY":242.6272,"EPHEMERIS_TYPE":0,"NORAD_CAT_ID":56368,"ELEMENT_SET_NO":999,"REV_AT_EPOCH":5652,"BSTAR":0,"MEAN_MOTION_DOT":-2.4e-7,"MEAN_MOTION_DDOT":0},{"OBJECT_NAME":"O3B MPOWER F5","OBJECT_ID":"2023-175A","EPOCH":"2026-07-22T21:20:13.972704","CLASSIFICATION_TYPE":"U","MEAN_MOTION":5.00115857,"ECCENTRICITY":0.00056126,"INCLINATION":0.0533,"RA_OF_ASC_NODE":8.368,"ARG_OF_PERICENTER":131.1897,"MEAN_ANOMALY":220.4818,"EPHEMERIS_TYPE":0,"NORAD_CAT_ID":58346,"ELEMENT_SET_NO":999,"REV_AT_EPOCH":5122,"BSTAR":0,"MEAN_MOTION_DOT":-2.4e-7,"MEAN_MOTION_DDOT":0},{"OBJECT_NAME":"O3B MPOWER F6","OBJECT_ID":"2023-175B","EPOCH":"2026-07-22T18:57:04.882176","CLASSIFICATION_TYPE":"U","MEAN_MOTION":5.00115774,"ECCENTRICITY":0.00044324,"INCLINATION":0.0546,"RA_OF_ASC_NODE":0.0652,"ARG_OF_PERICENTER":120.0521,"MEAN_ANOMALY":239.9244,"EPHEMERIS_TYPE":0,"NORAD_CAT_ID":58347,"ELEMENT_SET_NO":999,"REV_AT_EPOCH":5013,"BSTAR":0,"MEAN_MOTION_DOT":-2.4e-7,"MEAN_MOTION_DDOT":0},{"OBJECT_NAME":"O3B MPOWER F7","OBJECT_ID":"2024-244A","EPOCH":"2026-07-22T15:44:51.911232","CLASSIFICATION_TYPE":"U","MEAN_MOTION":5.00115385,"ECCENTRICITY":0.0005923,"INCLINATION":0.0655,"RA_OF_ASC_NODE":341.3994,"ARG_OF_PERICENTER":135.0371,"MEAN_ANOMALY":243.622,"EPHEMERIS_TYPE":0,"NORAD_CAT_ID":62362,"ELEMENT_SET_NO":999,"REV_AT_EPOCH":2830,"BSTAR":0,"MEAN_MOTION_DOT":-2.4e-7,"MEAN_MOTION_DDOT":0},{"OBJECT_NAME":"O3B MPOWER F8","OBJECT_ID":"2024-244B","EPOCH":"2026-07-23T00:32:57.940512","CLASSIFICATION_TYPE":"U","MEAN_MOTION":5.00115058,"ECCENTRICITY":0.00056724,"INCLINATION":0.0155,"RA_OF_ASC_NODE":12.8789,"ARG_OF_PERICENTER":97.1487,"MEAN_ANOMALY":250.0313,"EPHEMERIS_TYPE":0,"NORAD_CAT_ID":62363,"ELEMENT_SET_NO":999,"REV_AT_EPOCH":2266,"BSTAR":0,"MEAN_MOTION_DOT":-2.4e-7,"MEAN_MOTION_DDOT":0},{"OBJECT_NAME":"O3B MPOWER F9","OBJECT_ID":"2025-153A","EPOCH":"2026-07-21T22:57:48.394368","CLASSIFICATION_TYPE":"U","MEAN_MOTION":5.00115712,"ECCENTRICITY":0.00067965,"INCLINATION":0.062,"RA_OF_ASC_NODE":4.4458,"ARG_OF_PERICENTER":133.3971,"MEAN_ANOMALY":222.207,"EPHEMERIS_TYPE":0,"NORAD_CAT_ID":64866,"ELEMENT_SET_NO":999,"REV_AT_EPOCH":2130,"BSTAR":0,"MEAN_MOTION_DOT":-2.4e-7,"MEAN_MOTION_DDOT":0},{"OBJECT_NAME":"O3B MPOWER F10","OBJECT_ID":"2025-153B","EPOCH":"2026-07-23T02:55:59.785536","CLASSIFICATION_TYPE":"U","MEAN_MOTION":5.00114991,"ECCENTRICITY":0.00026362,"INCLINATION":0.0591,"RA_OF_ASC_NODE":1.0475,"ARG_OF_PERICENTER":246.7051,"MEAN_ANOMALY":112.2172,"EPHEMERIS_TYPE":0,"NORAD_CAT_ID":64867,"ELEMENT_SET_NO":999,"REV_AT_EPOCH":2383,"BSTAR":0,"MEAN_MOTION_DOT":-2.4e-7,"MEAN_MOTION_DDOT":0}]}
